{
"type": "FeatureCollection",
"features": [
{
"type": "Feature",
"properties": {
"category": "SERVICE_POINT",
"name": "Palvelupiste Ruori",
"name_fi": "Palvelupiste Ruori",
"name_sv": "Palvelupiste Ruori",
"name_en": "Ruori Service point",
"popup": "Kustaankatu 2",
"text": "Palvelupiste Ruori\nKustaankatu 2",
"city": "Kotka",
"city_sv": "Kotka",
"city_en": "Kotka",
"address": "Kustaankatu 2",
"address_sv": "Kustaankatu 2",
"address_en": "Kustaankatu 2",
"icon": {
"id": "icon_waltti",
"svg": "<svg xmlns=\"http://www.w3.org/2000/svg\" viewBox=\"0 0 533 437\" style=\"enable-background:new 0 0 533 437\" xml:space=\"preserve\"><path d=\"M457 98s-31.93 34.78-49.27 32.05c6.4 35.6-8.22 80.95-38.86 80.95-38.43 0-53.16-49.62-72.38-70.44s-40.03-12.81-60.85 9.61-33.86 80.77-68.86 78.47c-35-2.3-9.74-121.02-26.49-148.58-10.34-22.76-59.99-25.97-74.4-5.15-27.22 28.82-6.41 190.91 9.61 232.2 16.01 41.29 28.82 68.86 68.86 68.86s56.05-25.62 73.66-56.05 38.43-64.06 59.25-65.66c20.82-1.6 33.63 11.21 46.44 22.42 12.81 11.21 23.68 24.37 47.87 43.41 24.19 19.04 57.82-1.77 75.44-30.6 17.62-28.82 33.81-171 36.2-223.52C479.41 69.78 457 98 457 98z\" style=\"fill:#5a58a3\"/><path d=\"M404.42 97.53c2.62-1.09 6.93-.99 8.34-1.09 40.87-2.88 70.46-30.47 70.46-30.47s-27.66 92.58-79.79 114.71c8.47-34.02-20.68-72.54.99-83.15z\" style=\"fill:#010202\"/></svg>"
}
},
"geometry": {
"coordinates": [
26.94735018,
60.46733531
],
"type": "Point"
},
"id": 0
},
{
"type": "Feature",
"properties": {
"category": "SERVICE_POINT",
"name": "Asiointipiste Rinkeli",
"name_fi": "Asiointipiste Rinkeli",
"name_sv": "Asiointipiste Rinkeli",
"name_en": "Rinkeli Service point",
"popup": "Hamina",
"text": "Asiointipiste Rinkeli\nPuistokatu 6",
"city": "Hamina",
"city_sv": "Fredrikshamn",
"city_en": "Hamina",
"address": "Puistokatu 6",
"address_sv": "Puistokatu 6",
"address_en": "Puistokatu 6",
"icon": {
"id": "icon_waltti",
"svg": "<svg xmlns=\"http://www.w3.org/2000/svg\" viewBox=\"0 0 533 437\" style=\"enable-background:new 0 0 533 437\" xml:space=\"preserve\"><path d=\"M457 98s-31.93 34.78-49.27 32.05c6.4 35.6-8.22 80.95-38.86 80.95-38.43 0-53.16-49.62-72.38-70.44s-40.03-12.81-60.85 9.61-33.86 80.77-68.86 78.47c-35-2.3-9.74-121.02-26.49-148.58-10.34-22.76-59.99-25.97-74.4-5.15-27.22 28.82-6.41 190.91 9.61 232.2 16.01 41.29 28.82 68.86 68.86 68.86s56.05-25.62 73.66-56.05 38.43-64.06 59.25-65.66c20.82-1.6 33.63 11.21 46.44 22.42 12.81 11.21 23.68 24.37 47.87 43.41 24.19 19.04 57.82-1.77 75.44-30.6 17.62-28.82 33.81-171 36.2-223.52C479.41 69.78 457 98 457 98z\" style=\"fill:#5a58a3\"/><path d=\"M404.42 97.53c2.62-1.09 6.93-.99 8.34-1.09 40.87-2.88 70.46-30.47 70.46-30.47s-27.66 92.58-79.79 114.71c8.47-34.02-20.68-72.54.99-83.15z\" style=\"fill:#010202\"/></svg>"
}
},
"geometry": {
"coordinates": [
27.19137693,
60.56854793
],
"type": "Point"
},
"id": 1
},
{
"type": "Feature",
"properties": {
"category": "SERVICE_POINT",
"name": "Pyhtään kirjasto",
"name_fi": "Pyhtään kirjasto",
"name_sv": "Pyttis bibliotek",
"name_en": "Pyhtää library",
"popup": "Pyhtää",
"text": "Pyhtään kirjasto\nHuutjärventie 30",
"city": "Pyhtää",
"city_sv": "Pyttis",
"city_en": "Pyhtää",
"address": "Huutjärventie 30",
"address_sv": "Huutjärvivägen 30",
"address_en": "Huutjärventie 30",
"icon": {
"id": "icon_waltti"
}
},
"geometry": {
"coordinates": [
26.744255113727657,
60.48984937468515
],
"type": "Point"
},
"id": 3
},
{
"type": "Feature",
"properties": {
"category": "SALES_POINT",
"name": "R-Kioski, Karhula",
"name_fi": "R-Kioski, Karhula",
"name_sv": "R-Kioski, Karhula",
"name_en": "R-Kioski, Karhula",
"popup": "Karhula",
"text": "R-Kioski, Karhula\nSammonaukio 2",
"city": "Karhula",
"city_sv": "Karhula",
"city_en": "Karhula",
"address": "Sammonaukio 2",
"address_sv": "Sammonaukio 2",
"address_en": "Sammonaukio 2",
"icon": {
"id": "icon_waltti"
}
},
"geometry": {
"coordinates": [
26.92952990564171,
60.516310934819806
],
"type": "Point"
},
"id": 4
}
]
}